[{"OBJECT_NAME":"ONEWEB-0360","OBJECT_ID":"2021-090H","EPOCH":"2025-10-19T22:37:56.245440","MEAN_MOTION":13.20770527,"ECCENTRICITY":0.00019865,"INCLINATION":87.9207,"RA_OF_ASC_NODE":322.3587,"ARG_OF_PERICENTER":92.3674,"MEAN_ANOMALY":267.7686,"EPHEMERIS_TYPE":0,"CLASSIFICATION_TYPE":"U","NORAD_CAT_ID":49286,"ELEMENT_SET_NO":999,"REV_AT_EPOCH":19813,"BSTAR":-1.8466913e-5,"MEAN_MOTION_DOT":5.0e-8,"MEAN_MOTION_DDOT":0},{"OBJECT_NAME":"ONEWEB-0361","OBJECT_ID":"2021-090J","EPOCH":"2025-10-19T23:59:45.262752","MEAN_MOTION":13.20770328,"ECCENTRICITY":0.00017138,"INCLINATION":87.9206,"RA_OF_ASC_NODE":322.343,"ARG_OF_PERICENTER":91.2409,"MEAN_ANOMALY":268.8921,"EPHEMERIS_TYPE":0,"CLASSIFICATION_TYPE":"U","NORAD_CAT_ID":49287,"ELEMENT_SET_NO":999,"REV_AT_EPOCH":19859,"BSTAR":-5.8196487e-5,"MEAN_MOTION_DOT":-1.1e-7,"MEAN_MOTION_DDOT":0},{"OBJECT_NAME":"ONEWEB-0362","OBJECT_ID":"2021-090K","EPOCH":"2025-10-19T14:39:11.064672","MEAN_MOTION":13.19723919,"ECCENTRICITY":0.00021468,"INCLINATION":87.9253,"RA_OF_ASC_NODE":352.8505,"ARG_OF_PERICENTER":101.8841,"MEAN_ANOMALY":258.2532,"EPHEMERIS_TYPE":0,"CLASSIFICATION_TYPE":"U","NORAD_CAT_ID":49288,"ELEMENT_SET_NO":999,"REV_AT_EPOCH":19518,"BSTAR":6.311773e-5,"MEAN_MOTION_DOT":3.8e-7,"MEAN_MOTION_DDOT":0},{"OBJECT_NAME":"ONEWEB-0363","OBJECT_ID":"2021-090L","EPOCH":"2025-10-20T00:22:27.211008","MEAN_MOTION":13.20774045,"ECCENTRICITY":0.00016061,"INCLINATION":87.9207,"RA_OF_ASC_NODE":322.3364,"ARG_OF_PERICENTER":86.1645,"MEAN_ANOMALY":273.9672,"EPHEMERIS_TYPE":0,"CLASSIFICATION_TYPE":"U","NORAD_CAT_ID":49289,"ELEMENT_SET_NO":999,"REV_AT_EPOCH":19860,"BSTAR":0.0002745505,"MEAN_MOTION_DOT":1.25e-6,"MEAN_MOTION_DDOT":0},{"OBJECT_NAME":"ONEWEB-0364","OBJECT_ID":"2021-090M","EPOCH":"2025-10-19T10:44:18.452256","MEAN_MOTION":13.20770089,"ECCENTRICITY":0.00017222,"INCLINATION":87.9206,"RA_OF_ASC_NODE":322.4751,"ARG_OF_PERICENTER":92.5763,"MEAN_ANOMALY":267.5568,"EPHEMERIS_TYPE":0,"CLASSIFICATION_TYPE":"U","NORAD_CAT_ID":49290,"ELEMENT_SET_NO":999,"REV_AT_EPOCH":19966,"BSTAR":-5.7429854e-5,"MEAN_MOTION_DOT":-1.0e-7,"MEAN_MOTION_DDOT":0},{"OBJECT_NAME":"ONEWEB-0365","OBJECT_ID":"2021-090N","EPOCH":"2025-10-19T14:52:50.031264","MEAN_MOTION":13.19724817,"ECCENTRICITY":0.00019105,"INCLINATION":87.9266,"RA_OF_ASC_NODE":352.806,"ARG_OF_PERICENTER":102.0981,"MEAN_ANOMALY":258.0366,"EPHEMERIS_TYPE":0,"CLASSIFICATION_TYPE":"U","NORAD_CAT_ID":49291,"ELEMENT_SET_NO":999,"REV_AT_EPOCH":19469,"BSTAR":5.0248325e-5,"MEAN_MOTION_DOT":3.3e-7,"MEAN_MOTION_DDOT":0},{"OBJECT_NAME":"ONEWEB-0366","OBJECT_ID":"2021-090P","EPOCH":"2025-10-19T19:51:42.517152","MEAN_MOTION":13.14502686,"ECCENTRICITY":0.00018054,"INCLINATION":87.9033,"RA_OF_ASC_NODE":337.6024,"ARG_OF_PERICENTER":95.0573,"MEAN_ANOMALY":265.0763,"EPHEMERIS_TYPE":0,"CLASSIFICATION_TYPE":"U","NORAD_CAT_ID":49292,"ELEMENT_SET_NO":999,"REV_AT_EPOCH":19598,"BSTAR":0.00016715077,"MEAN_MOTION_DOT":7.5e-7,"MEAN_MOTION_DDOT":0},{"OBJECT_NAME":"ONEWEB-0367","OBJECT_ID":"2021-090Q","EPOCH":"2025-10-20T00:20:12.687936","MEAN_MOTION":13.20771045,"ECCENTRICITY":0.00020221,"INCLINATION":87.921,"RA_OF_ASC_NODE":322.3332,"ARG_OF_PERICENTER":98.3483,"MEAN_ANOMALY":261.788,"EPHEMERIS_TYPE":0,"CLASSIFICATION_TYPE":"U","NORAD_CAT_ID":49293,"ELEMENT_SET_NO":999,"REV_AT_EPOCH":19812,"BSTAR":0.00018256598,"MEAN_MOTION_DOT":8.7e-7,"MEAN_MOTION_DDOT":0},{"OBJECT_NAME":"ONEWEB-0368","OBJECT_ID":"2021-090R","EPOCH":"2025-10-19T23:41:34.364256","MEAN_MOTION":13.20770776,"ECCENTRICITY":0.0001198,"INCLINATION":87.9206,"RA_OF_ASC_NODE":322.373,"ARG_OF_PERICENTER":111.8394,"MEAN_ANOMALY":248.2867,"EPHEMERIS_TYPE":0,"CLASSIFICATION_TYPE":"U","NORAD_CAT_ID":49294,"ELEMENT_SET_NO":999,"REV_AT_EPOCH":19927,"BSTAR":-0.00013557767,"MEAN_MOTION_DOT":-4.2e-7,"MEAN_MOTION_DDOT":0},{"OBJECT_NAME":"ONEWEB-0369","OBJECT_ID":"2021-090S","EPOCH":"2025-10-19T14:46:00.079680","MEAN_MOTION":13.19724184,"ECCENTRICITY":0.00018675,"INCLINATION":87.926,"RA_OF_ASC_NODE":352.8381,"ARG_OF_PERICENTER":101.8752,"MEAN_ANOMALY":258.259,"EPHEMERIS_TYPE":0,"CLASSIFICATION_TYPE":"U","NORAD_CAT_ID":49295,"ELEMENT_SET_NO":999,"REV_AT_EPOCH":19468,"BSTAR":-3.8440637e-5,"MEAN_MOTION_DOT":-2.0e-8,"MEAN_MOTION_DDOT":0},{"OBJECT_NAME":"ONEWEB-0370","OBJECT_ID":"2021-090T","EPOCH":"2025-10-19T22:44:45.676032","MEAN_MOTION":13.2077133,"ECCENTRICITY":0.00021794,"INCLINATION":87.921,"RA_OF_ASC_NODE":322.3544,"ARG_OF_PERICENTER":92.0614,"MEAN_ANOMALY":268.0768,"EPHEMERIS_TYPE":0,"CLASSIFICATION_TYPE":"U","NORAD_CAT_ID":49296,"ELEMENT_SET_NO":999,"REV_AT_EPOCH":19815,"BSTAR":-1.7739445e-5,"MEAN_MOTION_DOT":6.0e-8,"MEAN_MOTION_DDOT":0},{"OBJECT_NAME":"ONEWEB-0371","OBJECT_ID":"2021-090U","EPOCH":"2025-10-19T14:57:22.917024","MEAN_MOTION":13.19724737,"ECCENTRICITY":0.00019547,"INCLINATION":87.926,"RA_OF_ASC_NODE":352.824,"ARG_OF_PERICENTER":101.3111,"MEAN_ANOMALY":258.8241,"EPHEMERIS_TYPE":0,"CLASSIFICATION_TYPE":"U","NORAD_CAT_ID":49297,"ELEMENT_SET_NO":999,"REV_AT_EPOCH":19472,"BSTAR":0.00010290588,"MEAN_MOTION_DOT":5.4e-7,"MEAN_MOTION_DDOT":0},{"OBJECT_NAME":"ONEWEB-0372","OBJECT_ID":"2021-090V","EPOCH":"2025-10-19T22:28:38.396064","MEAN_MOTION":13.20769928,"ECCENTRICITY":0.00018431,"INCLINATION":87.9205,"RA_OF_ASC_NODE":322.3582,"ARG_OF_PERICENTER":98.0635,"MEAN_ANOMALY":262.0707,"EPHEMERIS_TYPE":0,"CLASSIFICATION_TYPE":"U","NORAD_CAT_ID":49298,"ELEMENT_SET_NO":999,"REV_AT_EPOCH":19812,"BSTAR":0.00012729172,"MEAN_MOTION_DOT":6.5e-7,"MEAN_MOTION_DDOT":0},{"OBJECT_NAME":"ONEWEB-0373","OBJECT_ID":"2021-090W","EPOCH":"2025-10-19T08:34:44.785056","MEAN_MOTION":13.20770148,"ECCENTRICITY":0.00018997,"INCLINATION":87.9205,"RA_OF_ASC_NODE":322.4874,"ARG_OF_PERICENTER":91.1878,"MEAN_ANOMALY":268.9473,"EPHEMERIS_TYPE":0,"CLASSIFICATION_TYPE":"U","NORAD_CAT_ID":49299,"ELEMENT_SET_NO":999,"REV_AT_EPOCH":19923,"BSTAR":0.00034763475,"MEAN_MOTION_DOT":1.54e-6,"MEAN_MOTION_DDOT":0},{"OBJECT_NAME":"ONEWEB-0374","OBJECT_ID":"2021-090X","EPOCH":"2025-10-19T21:23:02.083776","MEAN_MOTION":13.14504381,"ECCENTRICITY":0.00012873,"INCLINATION":87.9031,"RA_OF_ASC_NODE":337.5654,"ARG_OF_PERICENTER":90.5445,"MEAN_ANOMALY":269.5832,"EPHEMERIS_TYPE":0,"CLASSIFICATION_TYPE":"U","NORAD_CAT_ID":49300,"ELEMENT_SET_NO":999,"REV_AT_EPOCH":19599,"BSTAR":0.0005488479,"MEAN_MOTION_DOT":2.16e-6,"MEAN_MOTION_DDOT":0},{"OBJECT_NAME":"ONEWEB-0375","OBJECT_ID":"2021-090Y","EPOCH":"2025-10-19T22:49:17.302080","MEAN_MOTION":13.20769889,"ECCENTRICITY":0.00016252,"INCLINATION":87.9204,"RA_OF_ASC_NODE":322.3489,"ARG_OF_PERICENTER":76.6837,"MEAN_ANOMALY":283.4478,"EPHEMERIS_TYPE":0,"CLASSIFICATION_TYPE":"U","NORAD_CAT_ID":49301,"ELEMENT_SET_NO":999,"REV_AT_EPOCH":19881,"BSTAR":0.000303983,"MEAN_MOTION_DOT":1.37e-6,"MEAN_MOTION_DDOT":0},{"OBJECT_NAME":"ONEWEB-0376","OBJECT_ID":"2021-090Z","EPOCH":"2025-10-19T04:00:02.849760","MEAN_MOTION":13.19724427,"ECCENTRICITY":0.00019233,"INCLINATION":87.9269,"RA_OF_ASC_NODE":352.8988,"ARG_OF_PERICENTER":106.7291,"MEAN_ANOMALY":253.4053,"EPHEMERIS_TYPE":0,"CLASSIFICATION_TYPE":"U","NORAD_CAT_ID":49302,"ELEMENT_SET_NO":999,"REV_AT_EPOCH":19466,"BSTAR":-1.7318443e-5,"MEAN_MOTION_DOT":6.0e-8,"MEAN_MOTION_DDOT":0}]
