ONEWEB-0360             
1 49286U 21090H   25292.94301210  .00000005  00000+0 -18467-4 0  9996
2 49286  87.9207 322.3587 0001986  92.3674 267.7686 13.20770527198137
ONEWEB-0361             
1 49287U 21090J   25292.99982943 -.00000011  00000+0 -58196-4 0  9991
2 49287  87.9206 322.3430 0001713  91.2409 268.8921 13.20770328198599
ONEWEB-0362             
1 49288U 21090K   25292.61054473  .00000038  00000+0  63118-4 0  9996
2 49288  87.9253 352.8505 0002146 101.8841 258.2532 13.19723919195187
ONEWEB-0363             
1 49289U 21090L   25293.01559272  .00000125  00000+0  27455-3 0  9999
2 49289  87.9207 322.3364 0001606  86.1645 273.9672 13.20774045198606
ONEWEB-0364             
1 49290U 21090M   25292.44743579 -.00000010  00000+0 -57430-4 0  9994
2 49290  87.9206 322.4751 0001722  92.5763 267.5568 13.20770089199663
ONEWEB-0365             
1 49291U 21090N   25292.62002351  .00000033  00000+0  50248-4 0  9994
2 49291  87.9266 352.8060 0001910 102.0981 258.0366 13.19724817194693
ONEWEB-0366             
1 49292U 21090P   25292.82757543  .00000075  00000+0  16715-3 0  9993
2 49292  87.9033 337.6024 0001805  95.0573 265.0763 13.14502686195983
ONEWEB-0367             
1 49293U 21090Q   25293.01403574  .00000087  00000+0  18257-3 0  9994
2 49293  87.9210 322.3332 0002022  98.3483 261.7880 13.20771045198128
ONEWEB-0368             
1 49294U 21090R   25292.98720329 -.00000042  00000+0 -13558-3 0  9992
2 49294  87.9206 322.3730 0001198 111.8394 248.2867 13.20770776199273
ONEWEB-0369             
1 49295U 21090S   25292.61527870 -.00000002  00000+0 -38441-4 0  9994
2 49295  87.9260 352.8381 0001867 101.8752 258.2590 13.19724184194688
ONEWEB-0370             
1 49296U 21090T   25292.94775088  .00000006  00000+0 -17739-4 0  9997
2 49296  87.9210 322.3544 0002179  92.0614 268.0768 13.20771330198151
ONEWEB-0371             
1 49297U 21090U   25292.62318191  .00000054  00000+0  10291-3 0  9998
2 49297  87.9260 352.8240 0001954 101.3111 258.8241 13.19724737194723
ONEWEB-0372             
1 49298U 21090V   25292.93655551  .00000065  00000+0  12729-3 0  9997
2 49298  87.9205 322.3582 0001843  98.0635 262.0707 13.20769928198129
ONEWEB-0373             
1 49299U 21090W   25292.35746279  .00000154  00000+0  34763-3 0  9993
2 49299  87.9205 322.4874 0001899  91.1878 268.9473 13.20770148199233
ONEWEB-0374             
1 49300U 21090X   25292.89099634  .00000216  00000+0  54885-3 0  9997
2 49300  87.9031 337.5654 0001287  90.5445 269.5832 13.14504381195992
ONEWEB-0375             
1 49301U 21090Y   25292.95089470  .00000137  00000+0  30398-3 0  9997
2 49301  87.9204 322.3489 0001625  76.6837 283.4478 13.20769889198817
ONEWEB-0376             
1 49302U 21090Z   25292.16669965  .00000006  00000+0 -17318-4 0  9998
2 49302  87.9269 352.8988 0001923 106.7291 253.4053 13.19724427194663
